#aV2014  6  4  0  0  0.00000000     288 DD+AD WGS84 FIT  NGA
## 1795 259200.00000000   300.00000000 56812 0.0000000000000
+   31     1  2  3  4  5  6  7  8 10 11 12 13 14 15 16 17 18
+         19 20 21 22 23 24 25 26 27 28 29 30 31 32  0  0  0
+          0  0  0  0  0  0  0  0  0  0  0  0  0  0  0  0  0
+          0  0  0  0  0  0  0  0  0  0  0  0  0  0  0  0  0
+          0  0  0  0  0  0  0  0  0  0  0  0  0  0  0  0  0
++         2  2  2  2  2  2  2  2  2  2  2  2  2  2  2  2  2
++         2  2  2  2  2  2  2  2  2  2  2  2  2  2  0  0  0
++         0  0  0  0  0  0  0  0  0  0  0  0  0  0  0  0  0
++         0  0  0  0  0  0  0  0  0  0  0  0  0  0  0  0  0
++         0  0  0  0  0  0  0  0  0  0  0  0  0  0  0  0  0
%c cc cc ccc ccc cccc cccc cccc cccc ccccc ccccc ccccc ccccc
%c cc cc ccc ccc cccc cccc cccc cccc ccccc ccccc ccccc ccccc
%f  0.0000000  0.000000000  0.00000000000  0.000000000000000
%f  0.0000000  0.000000000  0.00000000000  0.000000000000000
%i    0    0    0    0      0      0      0      0         0
%i    0    0    0    0      0      0      0      0         0
/*      NGA, ST. LOUIS,MO.                                  
/*   EPHEMERIS COMPUTED FROM  1 DAYS OF DATA                
/*   EPOCHA SMOOTHER                                       
/* CCCCCCCCCCCCCCCCCCCCCCCCCCCCCCCCCCCCCCCCCCCCCCCCCCCCCCCCC
*  2014  6  4 17 25  0.00000000
P  1  -7332.574273 -13971.862284 -21413.831803     14.339926                    
V  1  26669.583294  -4824.414694  -5852.777955      0.011079                    
P  2 -16908.611483  14219.509329  14673.355706    499.229387                    
V  2 -18581.346850    750.871992 -23084.130153      0.021680                    
P  3   5549.455596 -25876.818850    243.749990    373.753906                    
V  3   3388.885406   1685.662856  31357.023365      0.048388                    
P  4 -25722.233945   6493.897496   2584.118692      7.053622                    
V  4  -4168.151877  -2644.286028 -30869.763455      0.001566                    
P  5  -5513.289916  16163.095634  20265.907608   -368.135954                    
V  5 -17487.602359 -19146.436524  10657.453651      0.027124                    
P  6 -25555.675414   6886.960495   3500.036621      7.830264                    
V  6  -4789.151921  -1855.119507 -31263.316587      0.011448                    
P  7 -20899.335484  -7296.214417  14995.890459    353.945993                    
V  7  18344.295645  -4194.672902  23304.432785      0.042551                    
P  8 -25586.106835  -3738.017187   7495.105537     14.022566                    
V  8   9065.556203  -1461.395808  30273.399976      0.002393                    
P 10 -18032.220028    -29.029918  19294.222737   -128.365219                    
V 10 -14748.894969 -20435.125505 -13157.158367     -0.014956                    
P 11   -259.088621 -18080.399031 -19900.684259   -494.585000                    
V 11  22459.314924 -10121.059051   9341.133194     -0.031752                    
P 12   9703.739814  23015.613170  -9424.382045    209.383843                    
V 12  -8390.558054  -8398.647012 -29154.500817      0.024804                    
P 13  -8810.063951 -13722.485401  20795.319553     -7.113011                    
V 13  12668.307411 -23518.021830 -10250.769298     -0.038656                    
P 14  16945.721126  -4636.969002 -19650.780664    166.652466                    
V 14  -9542.318235  23631.466683 -13799.693757     -0.034727                    
P 15  -2519.744538  25212.440213  -7505.284498   -183.398830                    
V 15  -6394.730808   7962.895719  29402.256053     -0.021703                    
P 16   5809.753062 -15265.420091  20803.737223   -214.903638                    
V 16  16368.195434  20932.262252  11111.336615      0.020335                    
P 17 -16835.009384   5532.116745 -19451.307135    -98.697668                    
V 17   8632.263172 -23831.030287 -14281.633392     -0.029984                    
P 18  20298.184346  15558.047906  -7313.601417    323.454422                    
V 18   3668.415417   9789.727069  28856.353223      0.022313                    
P 19   7018.331211 -24596.739199  -6345.709369   -460.823305                    
V 19   6070.925113  -5918.753677  30778.486623     -0.021897                    
P 20 -12821.928218 -22075.063540  -7643.723255    196.527916                    
V 20   9077.695368   4504.596635 -28873.720106      0.039664                    
P 21  23413.667248   5285.692226  12487.807404   -365.081357                    
V 21 -14096.967853   5065.063658  25166.436851     -0.021848                    
P 22  19846.405704   3452.407515 -17175.899835    239.490319                    
V 22  12579.622605  18542.257584  17873.620942      0.029590                    
P 23  -2321.498407 -22188.189894  14192.844163    -26.049150                    
V 23   8873.742341 -15908.238207 -24017.510448     -0.030544                    
P 24   2126.763855  15175.838205 -21716.154763    -29.521724                    
V 24 -27118.383422   4769.003366    770.319534     -0.006238                    
P 25  17897.229397  19634.562989   1809.498772     24.611323                    
V 25   -181.999675   3239.221402 -31897.386516      0.003136                    
P 26 -12498.173552  23145.786618   1578.672988     57.248474                    
V 26  -1138.961303  -3691.875321  32186.651302     -0.121051                    
P 27  12609.574674 -22619.336957   5744.469253    -12.455513                    
V 27    -17.037070   7791.348431  30735.242556      0.025454                    
P 28 -19173.846639  -9060.812532 -15470.693299    359.866239                    
V 28 -10877.548720 -17618.450542  22789.796640      0.028808                    
P 29   9026.514121  14428.574264  20441.075221    537.387434                    
V 29 -11076.557116  23352.769106 -11564.829349      0.027764                    
P 30 -25810.960882  -1945.832384   6025.140691    -21.117965                    
V 30   7384.422154  -3415.380280  30447.617805     -0.061708                    
P 31  24704.166833  -7889.944823   6595.281881    334.116125                    
V 31   8273.142382    765.918828 -30479.770230     -0.000993                    
P 32   -820.542804 -21388.910915 -16005.594225   -414.103143                    
V 32  13049.158854  15593.982633 -20893.908427      0.082705                    
EOF
